BEIDOU-3S IGSO-1S       
1 40549U 15019A   26183.80025122 -.00000190  00000+0  00000+0 0  9997
2 40549  49.1798 295.2769 0076860 219.1125 144.2493  1.00680073 41232
NAVSTAR 74 (USA 262)    
1 40730U 15033A   26202.12571118 -.00000030  00000+0  00000+0 0  9996
2 40730  53.9569 265.6855 0115465  30.2918 330.4389  2.00554586 80671
BEIDOU-3S M2S           
1 40748U 15037A   26202.15122854 -.00000100  00000+0  00000+0 0  9999
2 40748  54.8385 300.8761 0009590 256.5762 103.3513  1.86231934 74755
BEIDOU-3S M1S           
1 40749U 15037B   26201.28070029 -.00000099  00000+0  00000+0 0  9996
2 40749  54.8358 300.8934 0002618  62.6171 297.4444  1.86254901 74748
GSAT0206 (GALILEO 10)   
1 40890U 15045B   26201.30589843  .00000058  00000+0  00000+0 0  9998
2 40890  54.9380 220.6893 0002088 330.0131  30.0144  1.70473732 67606
BEIDOU-3S IGSO-2S       
1 40938U 15053A   26202.13552100 -.00000101  00000+0  00000+0 0  9998
2 40938  49.1678 258.3743 0066007 193.7295 348.4957  1.00252195 39690
NAVSTAR 75 (USA 265)    
1 41019U 15062A   26201.68168135 -.00000086  00000+0  00000+0 0  9991
2 41019  56.9821  29.5218 0113089 230.8511 128.1725  2.00567122 78508
GSAT-15                 
1 41028U 15065A   26202.16878248 -.00000257  00000+0  00000+0 0  9991
2 41028   0.1023 263.4811 0003578 178.2143  11.5040  1.00271788 39149
GSAT0209 (GALILEO 12)   
1 41174U 15079A   26200.88772413 -.00000039  00000+0  00000+0 0  9990
2 41174  55.8457 100.3644 0004618 358.4074   1.6290  1.70473671 65332
GSAT0208 (GALILEO 11)   
1 41175U 15079B   26201.10806849 -.00000040  00000+0  00000+0 0  9990
2 41175  55.8445 100.3553 0004243   2.4138 357.6257  1.70473566 65756
IRNSS-1E                
1 41241U 16003A   26202.03020233 -.00000317  00000+0  00000+0 0  9997
2 41241  33.3051  59.2585 0019282 176.3074 185.9195  1.00275296 38420
NAVSTAR 76 (USA 266)    
1 41328U 16007A   26201.27421160 -.00000055  00000+0  00000+0 0  9995
2 41328  55.5443  88.1473 0096648 247.5757 111.4487  2.00575239 76504
COSMOS 2514 [GLONASS-M] 
1 41330U 16008A   26201.60265593 -.00000085  00000+0  00000+0 0  9995
2 41330  64.9994 311.8597 0012484 201.8566 158.1123  2.13102623 81331
BEIDOU-2 IGSO-6         
1 41434U 16021A   26177.11016981 -.00000145  00000+0  00000+0 0  9995
2 41434  60.2385  37.9495 0057558 231.0163 137.2672  1.00258926 37578
IRNSS-1G                
1 41469U 16027A   26202.00045461 -.00000338  00000+0  00000+0 0  9995
2 41469   5.2771  96.6929 0005806  12.8391 319.0262  1.00266774 37514
GSAT0211 (GALILEO 14)   
1 41549U 16030A   26201.23161694  .00000057  00000+0  00000+0 0  9996
2 41549  55.0891 220.7852 0003443 318.9851  41.0285  1.70473740 63235
GSAT0210 (GALILEO 13)   
1 41550U 16030B   26202.07544326  .00000063  00000+0  00000+0 0  9995
2 41550  55.0872 220.7604 0004714 246.6684 113.3235  1.70473925 63248
BEIDOU-2 G7             
1 41586U 16037A   26202.28178740 -.00000353  00000+0  00000+0 0  9990
2 41586   1.8028  69.5591 0006112   0.9399  80.5431  1.00270725  7237
EUTELSAT 117 WEST B     
1 41589U 16038B   26202.09416641 -.00000011  00000+0  00000+0 0  9999
2 41589   0.0129 134.2366 0000222  40.9130  40.6074  1.00271129 37003
GSAT0207 (GALILEO 15)   
1 41859U 16069A   26201.18093858 -.00000041  00000+0  00000+0 0  9996
2 41859  55.5174 100.1729 0004477 340.2934  19.7267  1.70473575 59963
GSAT0212 (GALILEO 16)   
1 41860U 16069B   26201.03433166 -.00000040  00000+0  00000+0 0  9991
2 41860  55.5153 100.1719 0004344  11.9645 348.0834  1.70473722 60217
GSAT0213 (GALILEO 17)   
1 41861U 16069C   26201.98808741 -.00000045  00000+0  00000+0 0  9996
2 41861  55.5169 100.1530 0003280 326.3606  33.6543  1.70474276 60099
GSAT0214 (GALILEO 18)   
1 41862U 16069D   26202.13435722 -.00000045  00000+0  00000+0 0  9990
2 41862  55.5164 100.1420 0003141 335.1519  24.8684  1.70473784 60226
SES-15                  
1 42709U 17026A   26202.27892093  .00000061  00000+0  00000+0 0  9995
2 42709   0.0290 317.0918 0001024 186.3345 126.8704  1.00272289  7771
QZS-2 (MICHIBIKI-2)     
1 42738U 17028A   26201.46513987 -.00000138  00000+0  00000+0 0  9997
2 42738  39.3796 242.6632 0756849 269.6615  95.8478  1.00275408  7962
QZS-3 (MICHIBIKI-3)     
1 42917U 17048A   26202.28508074 -.00000347  00000+0  00000+0 0  9992
2 42917   0.0592 205.9727 0002805 280.5409  42.1856  1.00269766 32600
COSMOS 2522 [GLONASS-M] 
1 42939U 17055A   26201.44027304  .00000084  00000+0  00000+0 0  9990
2 42939  64.0809 190.7524 0010884 240.6370 119.2556  2.13101801 68681
QZS-4 (MICHIBIKI-4)     
1 42965U 17062A   26202.25726799 -.00000358  00000+0  00000+0 0  9996
2 42965  40.0879 343.0509 0746939 268.6822 279.3148  1.00289434 32147
BEIDOU-3 M1             
1 43001U 17069A   26201.96127414 -.00000079  00000+0  00000+0 0  9991
2 43001  56.7221  61.9715 0008832 327.7311  32.2769  1.86231306 59235
GSAT0215 (GALILEO 19)   
1 43055U 17079A   26202.03721949  .00000063  00000+0  00000+0 0  9995
2 43055  55.0666 220.5746 0003756 269.0506  90.9475  1.70474450 53567
