OBJECT_NAME,OBJECT_ID,EPOCH,MEAN_MOTION,ECCENTRICITY,INCLINATION,RA_OF_ASC_NODE,ARG_OF_PERICENTER,MEAN_ANOMALY,EPHEMERIS_TYPE,CLASSIFICATION_TYPE,NORAD_CAT_ID,ELEMENT_SET_NO,REV_AT_EPOCH,BSTAR,MEAN_MOTION_DOT,MEAN_MOTION_DDOT
BEIDOU-3S IGSO-1S (C31),2015-019A,2026-07-02T19:12:21.705408,1.00680073,.00768606,49.1798,295.2769,219.1125,144.2493,0,U,40549,999,4123,0,-.19E-5,0
GPS BIIF-10 (PRN 08),2015-033A,2026-07-21T03:01:01.445952,2.00554586,.01154652,53.9569,265.6855,30.2918,330.4389,0,U,40730,999,8067,0,-.3E-6,0
BEIDOU-3S M2S (C58),2015-037A,2026-07-21T03:37:46.145856,1.86231934,.00095905,54.8385,300.8761,256.5762,103.3513,0,U,40748,999,7475,0,-.1E-5,0
BEIDOU-3S M1S (C57),2015-037B,2026-07-20T06:44:12.505056,1.86254901,.00026187,54.8358,300.8934,62.6171,297.4444,0,U,40749,999,7474,0,-.99E-6,0
GSAT0206 (GALILEO 10),2015-045B,2026-07-20T07:20:29.624352,1.70473732,.0002088,54.9380,220.6893,330.0131,30.0144,0,U,40890,999,6760,0,.58E-6,0
BEIDOU-3S IGSO-2S (C56),2015-053A,2026-07-21T03:15:09.014400,1.00252195,.00660079,49.1678,258.3743,193.7295,348.4957,0,U,40938,999,3969,0,-.101E-5,0
GPS BIIF-11 (PRN 10),2015-062A,2026-07-20T16:21:37.268640,2.00567122,.01130898,56.9821,29.5218,230.8511,128.1725,0,U,41019,999,7850,0,-.86E-6,0
GSAT-15 (GAGAN/PRN 139),2015-065A,2026-07-21T04:03:02.806272,1.00271788,.00035787,0.1023,263.4811,178.2143,11.5040,0,U,41028,999,3914,0,-.257E-5,0
GSAT0209 (GALILEO 12),2015-079A,2026-07-19T21:18:19.364832,1.70473671,.00046186,55.8457,100.3644,358.4074,1.6290,0,U,41174,999,6533,0,-.39E-6,0
GSAT0208 (GALILEO 11),2015-079B,2026-07-20T02:35:37.117536,1.70473566,.00042434,55.8445,100.3553,2.4138,357.6257,0,U,41175,999,6575,0,-.4E-6,0
IRNSS-1E,2016-003A,2026-07-21T00:43:29.481312,1.00275296,.0019282,33.3051,59.2585,176.3074,185.9195,0,U,41241,999,3842,0,-.317E-5,0
GPS BIIF-12 (PRN 32),2016-007A,2026-07-20T06:34:51.882240,2.00575239,.00966486,55.5443,88.1473,247.5757,111.4487,0,U,41328,999,7650,0,-.55E-6,0
COSMOS 2514 (751),2016-008A,2026-07-20T14:27:49.472352,2.13102623,.00124841,64.9994,311.8597,201.8566,158.1123,0,U,41330,999,8133,0,-.85E-6,0
BEIDOU-2 IGSO-6 (C13),2016-021A,2026-06-26T02:38:38.671584,1.00258926,.0057558,60.2385,37.9495,231.0163,137.2672,0,U,41434,999,3757,0,-.145E-5,0
IRNSS-1G,2016-027A,2026-07-21T00:00:39.278304,1.00266774,.00058063,5.2771,96.6929,12.8391,319.0262,0,U,41469,999,3751,0,-.338E-5,0
GSAT0211 (GALILEO 14),2016-030A,2026-07-20T05:33:31.703616,1.70473740,.00034438,55.0891,220.7852,318.9851,41.0285,0,U,41549,999,6323,0,.57E-6,0
GSAT0210 (GALILEO 13),2016-030B,2026-07-21T01:48:38.297664,1.70473925,.00047147,55.0872,220.7604,246.6684,113.3235,0,U,41550,999,6324,0,.63E-6,0
BEIDOU-2 G7 (C03),2016-037A,2026-07-21T06:45:46.431360,1.00270725,.0006112,1.8028,69.5591,0.9399,80.5431,0,U,41586,999,723,0,-.353E-5,0
EUTELSAT 117 WEST B (WAAS/PRN 131),2016-038B,2026-07-21T02:15:35.977824,1.00271129,.00002221,0.0129,134.2366,40.9130,40.6074,0,U,41589,999,3700,0,-.11E-6,0
GSAT0207 (GALILEO 15),2016-069A,2026-07-20T04:20:33.093312,1.70473575,.00044775,55.5174,100.1729,340.2934,19.7267,0,U,41859,999,5996,0,-.41E-6,0
GSAT0212 (GALILEO 16),2016-069B,2026-07-20T00:49:26.255424,1.70473722,.0004344,55.5153,100.1719,11.9645,348.0834,0,U,41860,999,6021,0,-.4E-6,0
GSAT0213 (GALILEO 17),2016-069C,2026-07-20T23:42:50.752224,1.70474276,.00032806,55.5169,100.1530,326.3606,33.6543,0,U,41861,999,6009,0,-.45E-6,0
GSAT0214 (GALILEO 18),2016-069D,2026-07-21T03:13:28.463808,1.70473784,.00031418,55.5164,100.1420,335.1519,24.8684,0,U,41862,999,6022,0,-.45E-6,0
SES-15 (WAAS/PRN 133),2017-026A,2026-07-21T06:41:38.768352,1.00272289,.00010248,0.0290,317.0918,186.3345,126.8704,0,U,42709,999,777,0,.61E-6,0
QZS-2 (QZSS/PRN 194),2017-028A,2026-07-20T11:09:48.084768,1.00275408,.07568495,39.3796,242.6632,269.6615,95.8478,0,U,42738,999,796,0,-.138E-5,0
QZS-3 (QZSS/PRN 199),2017-048A,2026-07-21T06:50:30.975936,1.00269766,.00028054,0.0592,205.9727,280.5409,42.1856,0,U,42917,999,3260,0,-.347E-5,0
COSMOS 2522 (752),2017-055A,2026-07-20T10:33:59.590656,2.13101801,.00108849,64.0809,190.7524,240.6370,119.2556,0,U,42939,999,6868,0,.84E-6,0
QZS-4 (QZSS/PRN 195),2017-062A,2026-07-21T06:10:27.954336,1.00289434,.07469394,40.0879,343.0509,268.6822,279.3148,0,U,42965,999,3214,0,-.358E-5,0
BEIDOU-3 M1 (C19),2017-069A,2026-07-20T23:04:14.085696,1.86231306,.0008832,56.7221,61.9715,327.7311,32.2769,0,U,43001,999,5923,0,-.79E-6,0
GSAT0215 (GALILEO 19),2017-079A,2026-07-21T00:53:35.763936,1.70474450,.00037569,55.0666,220.5746,269.0506,90.9475,0,U,43055,999,5356,0,.63E-6,0
